TRANSPORTER-15 OBJECT AA
1 66690U 25276AA  26068.71491742  .00005737  00000+0  28456-3 0  9995
2 66690  97.4256 143.8764 0004562   6.1284 354.0005 15.18098016 15319
MAUVE                   
1 66756U 25276CU  26068.71857583  .00008348  00000+0  39937-3 0  9994
2 66756  97.4273 144.0489 0000577 359.2470   0.8764 15.19228326 15328
