[{"OBJECT_NAME":"TRANSPORTER-15 OBJECT AA","OBJECT_ID":"2025-276AA","EPOCH":"2026-03-09T17:09:28.865952","MEAN_MOTION":15.18098016,"ECCENTRICITY":0.00045616,"INCLINATION":97.4256,"RA_OF_ASC_NODE":143.8764,"ARG_OF_PERICENTER":6.1284,"MEAN_ANOMALY":354.0005,"EPHEMERIS_TYPE":0,"CLASSIFICATION_TYPE":"U","NORAD_CAT_ID":66690,"ELEMENT_SET_NO":999,"REV_AT_EPOCH":1531,"BSTAR":0.00028455511,"MEAN_MOTION_DOT":5.737e-5,"MEAN_MOTION_DDOT":0},{"OBJECT_NAME":"MAUVE","OBJECT_ID":"2025-276CU","EPOCH":"2026-03-09T17:14:44.951712","MEAN_MOTION":15.19228326,"ECCENTRICITY":5.768e-5,"INCLINATION":97.4273,"RA_OF_ASC_NODE":144.0489,"ARG_OF_PERICENTER":359.247,"MEAN_ANOMALY":0.8764,"EPHEMERIS_TYPE":0,"CLASSIFICATION_TYPE":"U","NORAD_CAT_ID":66756,"ELEMENT_SET_NO":999,"REV_AT_EPOCH":1532,"BSTAR":0.00039937228,"MEAN_MOTION_DOT":8.348e-5,"MEAN_MOTION_DDOT":0}]
